{
  "type": "FeatureCollection",
  "features": [
    {
      "type": "Feature",
      "properties": {
        "norad_id": 66590,
        "name": "STARLINK-35429",
        "group": "last-30-days",
        "lat": 30.409956707902005,
        "lon": 176.6128242465722,
        "alt_km": 439.7613291151565,
        "timestamp": "2025-12-22T05:49:02.184020+00:00",
        "meta_object_name": "STARLINK-35429",
        "meta_object_id": "2025-270C",
        "meta_epoch": "2025-12-21T20:00:01.999008",
        "meta_mean_motion": 15.40653182,
        "meta_eccentricity": 0.0001546,
        "meta_inclination": 43.0005,
        "meta_ra_of_asc_node": 139.932,
        "meta_arg_of_pericenter": 278.5196,
        "meta_mean_anomaly": 18.091,
        "meta_ephemeris_type": 0,
        "meta_classification_type": "U",
        "meta_norad_cat_id": 66590,
        "meta_element_set_no": 999,
        "meta_rev_at_epoch": 596,
        "meta_bstar": 0.0021204,
        "meta_mean_motion_dot": 0.00089175,
        "meta_mean_motion_ddot": 0,
        "tle_line1": "1 66590U 25270C   25355.83335647  .00089175  00000+0  21204-2 0  9991",
        "tle_line2": "2 66590  43.0005 139.9320 0001546 278.5196  18.0910 15.40653182  5965"
      },
      "geometry": {
        "type": "Point",
        "coordinates": [
          176.6128242465722,
          30.409956707902005
        ]
      }
    },
    {
      "type": "Feature",
      "properties": {
        "norad_id": 66591,
        "name": "STARLINK-36058",
        "group": "last-30-days",
        "lat": 28.802549357281666,
        "lon": -78.79625648663772,
        "alt_km": 440.43923310043374,
        "timestamp": "2025-12-22T05:49:02.184031+00:00",
        "meta_object_name": "STARLINK-36058",
        "meta_object_id": "2025-270D",
        "meta_epoch": "2025-12-21T20:00:01.999008",
        "meta_mean_motion": 15.40673624,
        "meta_eccentricity": 0.0001617,
        "meta_inclination": 43.0001,
        "meta_ra_of_asc_node": 139.7197,
        "meta_arg_of_pericenter": 308.2056,
        "meta_mean_anomaly": 75.3707,
        "meta_ephemeris_type": 0,
        "meta_classification_type": "U",
        "meta_norad_cat_id": 66591,
        "meta_element_set_no": 999,
        "meta_rev_at_epoch": 586,
        "meta_bstar": 0.0019932,
        "meta_mean_motion_dot": 0.00083803,
        "meta_mean_motion_ddot": 0,
        "tle_line1": "1 66591U 25270D   25355.83335647  .00083803  00000+0  19932-2 0  9999",
        "tle_line2": "2 66591  43.0001 139.7197 0001617 308.2056  75.3707 15.40673624  5869"
      },
      "geometry": {
        "type": "Point",
        "coordinates": [
          -78.79625648663772,
          28.802549357281666
        ]
      }
    },
    {
      "type": "Feature",
      "properties": {
        "norad_id": 66592,
        "name": "STARLINK-36066",
        "group": "last-30-days",
        "lat": -42.96695338908857,
        "lon": 49.628374031815326,
        "alt_km": 444.0029274917397,
        "timestamp": "2025-12-22T05:49:02.184042+00:00",
        "meta_object_name": "STARLINK-36066",
        "meta_object_id": "2025-270E",
        "meta_epoch": "2025-12-21T19:18:36.252000",
        "meta_mean_motion": 15.4072543,
        "meta_eccentricity": 0.0005107,
        "meta_inclination": 43.0002,
        "meta_ra_of_asc_node": 140.4255,
        "meta_arg_of_pericenter": 247.907,
        "meta_mean_anomaly": 112.1244,
        "meta_ephemeris_type": 0,
        "meta_classification_type": "U",
        "meta_norad_cat_id": 66592,
        "meta_element_set_no": 999,
        "meta_rev_at_epoch": 564,
        "meta_bstar": 0.00070721,
        "meta_mean_motion_dot": 0.00029387,
        "meta_mean_motion_ddot": 0,
        "tle_line1": "1 66592U 25270E   25355.80458625  .00029387  00000+0  70721-3 0  9990",
        "tle_line2": "2 66592  43.0002 140.4255 0005107 247.9070 112.1244 15.40725430  5643"
      },
      "geometry": {
        "type": "Point",
        "coordinates": [
          49.628374031815326,
          -42.96695338908857
        ]
      }
    },
    {
      "type": "Feature",
      "properties": {
        "norad_id": 66593,
        "name": "STARLINK-36031",
        "group": "last-30-days",
        "lat": -1.1801604322256491,
        "lon": 136.42472457668282,
        "alt_km": 443.12486819615515,
        "timestamp": "2025-12-22T05:49:02.184052+00:00",
        "meta_object_name": "STARLINK-36031",
        "meta_object_id": "2025-270F",
        "meta_epoch": "2025-12-21T17:22:41.132352",
        "meta_mean_motion": 15.40731859,
        "meta_eccentricity": 0.0003189,
        "meta_inclination": 43.0018,
        "meta_ra_of_asc_node": 140.679,
        "meta_arg_of_pericenter": 281.8549,
        "meta_mean_anomaly": 78.195,
        "meta_ephemeris_type": 0,
        "meta_classification_type": "U",
        "meta_norad_cat_id": 66593,
        "meta_element_set_no": 999,
        "meta_rev_at_epoch": 573,
        "meta_bstar": 0.00092206,
        "meta_mean_motion_dot": 0.00038452,
        "meta_mean_motion_ddot": 0,
        "tle_line1": "1 66593U 25270F   25355.72408718  .00038452  00000+0  92206-3 0  9995",
        "tle_line2": "2 66593  43.0018 140.6790 0003189 281.8549  78.1950 15.40731859  5730"
      },
      "geometry": {
        "type": "Point",
        "coordinates": [
          136.42472457668282,
          -1.1801604322256491
        ]
      }
    },
    {
      "type": "Feature",
      "properties": {
        "norad_id": 66594,
        "name": "STARLINK-36032",
        "group": "last-30-days",
        "lat": 42.496185611399625,
        "lon": -122.03341262724493,
        "alt_km": 438.10670901149115,
        "timestamp": "2025-12-22T05:49:02.184062+00:00",
        "meta_object_name": "STARLINK-36032",
        "meta_object_id": "2025-270G",
        "meta_epoch": "2025-12-21T20:00:01.999008",
        "meta_mean_motion": 15.40674347,
        "meta_eccentricity": 0.0001453,
        "meta_inclination": 43,
        "meta_ra_of_asc_node": 139.8104,
        "meta_arg_of_pericenter": 267.2083,
        "meta_mean_anomaly": 79.1044,
        "meta_ephemeris_type": 0,
        "meta_classification_type": "U",
        "meta_norad_cat_id": 66594,
        "meta_element_set_no": 999,
        "meta_rev_at_epoch": 559,
        "meta_bstar": 0.0023935,
        "meta_mean_motion_dot": 0.00100926,
        "meta_mean_motion_ddot": 0,
        "tle_line1": "1 66594U 25270G   25355.83335647  .00100926  00000+0  23935-2 0  9996",
        "tle_line2": "2 66594  43.0000 139.8104 0001453 267.2083  79.1044 15.40674347  5591"
      },
      "geometry": {
        "type": "Point",
        "coordinates": [
          -122.03341262724493,
          42.496185611399625
        ]
      }
    },
    {
      "type": "Feature",
      "properties": {
        "norad_id": 66595,
        "name": "STARLINK-35711",
        "group": "last-30-days",
        "lat": -29.584501925698866,
        "lon": -5.3314563794095795,
        "alt_km": 419.39820284871166,
        "timestamp": "2025-12-22T05:49:02.184073+00:00",
        "meta_object_name": "STARLINK-35711",
        "meta_object_id": "2025-270H",
        "meta_epoch": "2025-12-20T03:22:00.602400",
        "meta_mean_motion": 15.5018184,
        "meta_eccentricity": 0.00034215,
        "meta_inclination": 42.999,
        "meta_ra_of_asc_node": 149.4265,
        "meta_arg_of_pericenter": 341.0071,
        "meta_mean_anomaly": 19.0661,
        "meta_ephemeris_type": 0,
        "meta_classification_type": "U",
        "meta_norad_cat_id": 66595,
        "meta_element_set_no": 999,
        "meta_rev_at_epoch": 560,
        "meta_bstar": 0.0012292638,
        "meta_mean_motion_dot": 0.00071426,
        "meta_mean_motion_ddot": 0,
        "tle_line1": "1 66595U 25270H   25354.14028475  .00071426  00000+0  12293-2 0  9995",
        "tle_line2": "2 66595  42.9990 149.4265 0003421 341.0071  19.0661 15.50181840  5600"
      },
      "geometry": {
        "type": "Point",
        "coordinates": [
          -5.3314563794095795,
          -29.584501925698866
        ]
      }
    },
    {
      "type": "Feature",
      "properties": {
        "norad_id": 66596,
        "name": "STARLINK-35811",
        "group": "last-30-days",
        "lat": -38.66136277975988,
        "lon": 17.11277362523958,
        "alt_km": 444.24421979948056,
        "timestamp": "2025-12-22T05:49:02.184084+00:00",
        "meta_object_name": "STARLINK-35811",
        "meta_object_id": "2025-270J",
        "meta_epoch": "2025-12-21T17:51:42.368832",
        "meta_mean_motion": 15.40729459,
        "meta_eccentricity": 0.0004525,
        "meta_inclination": 43.0021,
        "meta_ra_of_asc_node": 140.8369,
        "meta_arg_of_pericenter": 268.1923,
        "meta_mean_anomaly": 91.8415,
        "meta_ephemeris_type": 0,
        "meta_classification_type": "U",
        "meta_norad_cat_id": 66596,
        "meta_element_set_no": 999,
        "meta_rev_at_epoch": 584,
        "meta_bstar": 0.00087176,
        "meta_mean_motion_dot": 0.0003633,
        "meta_mean_motion_ddot": 0,
        "tle_line1": "1 66596U 25270J   25355.74424038  .00036330  00000+0  87176-3 0  9996",
        "tle_line2": "2 66596  43.0021 140.8369 0004525 268.1923  91.8415 15.40729459  5843"
      },
      "geometry": {
        "type": "Point",
        "coordinates": [
          17.11277362523958,
          -38.66136277975988
        ]
      }
    }
  ]
}